ONEWEB-0665             
1 55825U 23029AF  25053.38797961  .00000109  00000+0  25953-3 0  9992
2 55825  87.9036  25.1197 0002081  89.5815 270.5553 13.14501350 96377
ONEWEB-0666             
1 55826U 23029AG  25053.56890864  .00000146  00000+0  32808-3 0  9997
2 55826  87.9310   9.9150 0001599  72.7703 287.3605 13.20773537 98523
ONEWEB-0667             
1 55827U 23029AH  25053.56258507  .00000058  00000+0  11067-3 0  9996
2 55827  87.9310   9.8489 0001887  88.7090 271.4259 13.20774570 97834
ONEWEB-0669             
1 55828U 23029AJ  25053.40634699  .00000051  00000+0  94509-4 0  9996
2 55828  87.9309   9.9160 0001087  78.2398 281.8857 13.20772986 97813
ONEWEB-0670             
1 55829U 23029AK  25053.44189840  .00000270  00000+0  69360-3 0  9993
2 55829  87.9038  25.1231 0001850  99.0914 261.0425 13.14501556 96406
ONEWEB-0671             
1 55830U 23029AL  25053.44646820  .00000071  00000+0  14619-3 0  9997
2 55830  87.9170  40.3354 0001912  96.0790 264.0561 13.19726932 95627
ONEWEB-0672             
1 55831U 23029AM  25053.62888858  .00000033  00000+0  49306-4 0  9997
2 55831  87.9309   9.8571 0001673  71.4607 288.6708 13.20773442 98528
ONEWEB-0673             
1 55832U 23029AN  25053.49859433  .00000058  00000+0  11161-3 0  9994
2 55832  87.9169  40.2899 0002172  86.2001 273.9380 13.19727365 95635
